C/2018 R4 (Fuls),e,11.6828,298.4601,345.1517,297.8047,0.0001918,0.99425953,0.0000,03/03.6227/2018,2000,g 14.0,4.0
# From MPC112393
C/2018 R5 (Lemmon),e,103.7567,171.1416,178.0137,22.86508,0.0090146,0.84162512,0.1263,01/24.0/2019,2000,g 11.5,4.0
# From MPEC 2018-W42
C/2018 U1 (Lemmon),h,10/31.9700/2021,108.3007,75.4841,180.4172,1.003123,4.987199,2000,5.0,4.0
# From MPEC 2018-W46
C/2018 V1 (Machholz-Fujikawa-Iwamoto),p,12/03.5105/2018,143.9939,88.7770,0.386980,128.7145,2000,12.0,4.0
# From MPEC 2018-X10
C/2018 V2 (ATLAS),e,159.1107,356.7877,318.6582,25.67067,0.0075779,0.90358739,0.4397,01/24.0/2019,2000,g 14.5,4.0
# From MPEC 2018-W18
P/2018 VN2 (Leonard),e,18.0101,226.3691,139.1369,4.036961,0.1215129,0.47641455,359.9793,06/07.0/2018,2000,g 15.0,4.0
# From 0 0. E2018-X12
A/2018 V3 (                 K191O 359.8),e,164.9770,308.6579,3.4257,130.6215,0.0006602,0.98973263,0.0000,09/08.6497/2019,2000,g990.1,0.0
# From MPEC 2018-X13
C/2018 V4 (Africano),e,69.0305,78.3724,0.0520,240.7128,0.0002639,0.98670908,0.0000,03/01.8552/2019,2000,g 12.5,4.0
# From MPEC 2018-XD6
C/2018 W1 (Catalina),e,83.2779,233.5899,251.2482,21.83094,0.0096626,0.93769642,358.9579,01/24.0/2019,2000,g 15.7,2.0
# From MPEC 2018-Y71
C/2018 W2 (Africano),e,116.6126,181.8346,158.0879,883.8055,0.0000375,0.99835570,0.0000,09/06.0405/2019,2000,g  9.5,4.0
# From MPEC 2018-Y70
C/2018 X2 (Fitzsimmons),e,23.0656,340.8519,161.9930,138.6791,0.0006035,0.98466111,0.0000,07/08.5639/2019,2000,g 12.0,4.0
# From MPEC 2018-Y24
C/2018 X3 (PANSTARRS),e,43.3692,78.9248,359.8332,12.41685,0.0225262,0.78264427,0.5452,01/24.0/2019,2000,g 14.5,4.0
# From MPEC 2019-B48
C/2018 Y1 (Iwamoto),e,160.3950,147.4710,358.0366,95.54575,0.0010553,0.98653459,0.0000,02/06.9983/2019,2000,g 11.5,4.0
# From MPEC 2019-A20
P/2018 Y2 (Africano),e,11.5525,297.4396,160.2085,7.519802,0.0477963,0.48485961,1.6671,01/24.0/2019,2000,g 11.5,4.0
# From MPEC 2019-AA1
P/2019 A1 (PANSTARRS),e,13.7439,312.2994,150.8545,5.129062,0.0848491,0.56878590,8.9041,01/24.0/2019,2000,g 16.0,4.0
# From MPEC 2019-AC6
P/2019 A2 (ATLAS),e,14.9328,139.3334,326.0809,5.712798,0.0721823,0.37784474,3.8837,01/24.0/2019,2000,g 10.5,4.0
# From MPEC 2019-AG6
P/2019 A3 (PANSTARRS),e,15.3664,31.3339,325.4762,3.147337,0.1765181,0.26496294,30.9228,01/24.0/2019,2000,g  9.0,4.0
# From MPEC 2019-B44
P/2019 A4 (PANSTARRS),e,13.0144,119.4266,339.9010,2.605989,0.2342853,0.09589068,12.9999,01/24.0/2019,2000,g 15.0,4.0
# From MPEC 2019-B45
C/2019 A5 (PANSTARRS),p,10/13.9768/2017,55.7700,287.0819,4.537253,149.9686,2000,10.0,4.0
# From MPEC 2019-B46
P/2019 A6 (Lemmon-PANSTARRS),e,33.2217,280.2652,156.2953,5.373194,0.0791326,0.63930540,11.6868,01/24.0/2019,2000,g 16.0,4.0
# From MPEC 2019-B66
P/2019 A7 (PANSTARRS),e,17.7733,280.5220,119.5161,3.188015,0.1731504,0.16072684,65.9798,01/24.0/2019,2000,g 13.5,4.0
# From MPEC 2019-B65
C/2019 B1 (Africano),p,03/19.2366/2019,123.5580,174.0932,1.605767,290.1842,2000,16.0,4.0
# From AJ 98, 1083
1P/Halley,e,162.3366,57.9852,110.9130,17.86330,0.0130545,0.96663013,157.5384,01/24.0/2019,2000,g  5.5,3.2
# From MPC105240
2P/Encke,e,11.7695,334.5609,186.5667,2.214733,0.2990351,0.84810660,204.8472,01/24.0/2019,2000,g 11.5,6.0
# From MPC 92275
4P/Faye,e,8.1782,194.9178,205.9180,3.796716,0.1332269,0.58491496,232.6189,01/24.0/2019,2000,g  8.0,6.0
# From MPC 95735
6P/d'Arrest,e,19.5009,138.9207,178.0585,3.499697,0.1505422,0.61205737,214.2617,01/24.0/2019,2000,g  7.5,16.0
# From MPC 92984
7P/Pons-Winnecke,e,22.3626,93.3801,172.5254,3.417092,0.1560339,0.63844057,226.7508,01/24.0/2019,2000,g 10.0,6.0
# From MPC 75715
8P/Tuttle,e,54.9156,270.2120,207.5225,5.695450,0.0725124,0.81988140,291.3233,01/24.0/2019,2000,g  8.0,8.0
# From MPC 84319
9P/Tempel,e,10.4752,68.7387,179.2777,3.147210,0.1765288,0.50970985,159.6076,01/24.0/2019,2000,g  5.5,10.0
# From MPC 92984
10P/Tempel,e,12.0375,117.8001,195.4875,3.061810,0.1839656,0.53805504,214.5724,01/24.0/2019,2000,g  5.0,10.0
# From MPC105240
11P/Tempel-Swift-LINEAR,e,14.5971,239.2286,166.9437,3.309541,0.1637014,0.57798675,250.4353,01/24.0/2019,2000,g 17.0,4.0
# From QJ 27, 604
12P/Pons-Brooks,e,74.0539,255.6907,199.1173,17.01607,0.0140415,0.95424562,333.1114,01/24.0/2019,2000,g  5.0,6.0
# From QJ 27, 604
13P/Olbers,e,44.6275,85.8407,64.6541,16.64346,0.0145157,0.92999349,331.1888,01/24.0/2019,2000,g  5.0,6.0
# From MPC 10028
14P/Wolf,e,27.9003,202.1118,159.0006,4.260174,0.1120890,0.35621236,46.8615,01/24.0/2019,2000,g  5.5,12.0
# From MPC 91617
15P/Finlay,e,6.7965,13.7200,347.8607,3.502910,0.1503352,0.71673041,224.4025,01/24.0/2019,2000,g 12.0,4.0
# From MPC 92276
16P/Brooks,e,2.9976,139.5972,245.0059,3.645170,0.1416209,0.49218517,244.8903,01/24.0/2019,2000,g  7.5,10.0
# From MPC 83523
17P/Holmes,e,19.0261,326.7051,24.6598,3.631741,0.1424071,0.42837161,252.0032,01/24.0/2019,2000,g 10.0,6.0
# From MPC 92984
19P/Borrelly,e,31.1422,74.9825,353.2166,3.577812,0.1456391,0.63440952,194.5911,01/24.0/2019,2000,g  4.5,10.0
# From MPC111773
21P/Giacobini-Zinner,e,31.9976,195.3909,172.8584,3.497375,0.1506922,0.71041429,20.4527,01/24.0/2019,2000,g  9.0,6.0
# From MPC 94283
22P/Kopff,e,4.7399,120.8386,162.9083,3.444499,0.1541753,0.54857545,182.8707,01/24.0/2019,2000,g  3.0,10.4
# From MPC 14747
23P/Brorsen-Metcalf,e,19.2246,312.0559,129.1874,16.96149,0.0141094,0.97086920,0.0000,08/28.5978/1989,2000,g  7.8,3.2
# From MPC110085
24P/Schaumasse,e,11.7438,79.6258,57.9750,4.083123,0.1194581,0.70524736,51.7145,01/24.0/2019,2000,g  6.5,14.0
# From MPC 94674
26P/Grigg-Skjellerup,e,22.4494,211.5321,2.1958,3.014181,0.1883433,0.64094636,21.5059,01/24.0/2019,2000,g 12.0,16.0
# From MPC 78188
27P/Crommelin,e,29.1006,250.5707,196.0411,9.199226,0.0353246,0.91794901,96.6933,01/24.0/2019,2000,g 12.0,8.0
# From MPC 75715
28P/Neujmin,e,14.3107,346.3444,347.4531,6.961109,0.0536644,0.77326346,318.2371,01/24.0/2019,2000,g  8.5,6.0
# From MPC111773
29P/Schwassmann-Wachmann,e,9.3688,312.3973,47.7881,6.025408,0.0666384,0.04291613,357.1357,01/24.0/2019,2000,g  4.0,4.0
# From MPC110085
30P/Reinmuth,e,8.1509,119.4825,13.4640,3.773747,0.1344451,0.50395764,70.2030,01/24.0/2019,2000,g  9.5,6.0
# From MPC108597
31P/Schwassmann-Wachmann,e,4.5468,114.1113,18.3627,4.245310,0.1126782,0.19314449,341.6136,01/24.0/2019,2000,g  5.0,8.0
# From MPC 92276
32P/Comas Sola,e,9.9571,57.7648,53.2681,4.501394,0.1032009,0.55582233,161.0451,01/24.0/2019,2000,g  6.5,8.0
# From MPC 84320
33P/Daniel,e,22.4567,66.3608,20.3390,4.062668,0.1203614,0.45940531,106.4682,01/24.0/2019,2000,g 10.0,12.0
# From QJ 15, 452
35P/Herschel-Rigollet,e,64.0406,355.9524,29.2608,28.57227,0.0064534,0.97313888,0.0000,01/07.9131/2092,2000,g  8.5,4.0
# From MPC105240
36P/Whipple,e,9.9516,181.8741,200.6442,4.131151,0.1173809,0.26825601,302.1126,01/24.0/2019,2000,g  8.5,6.0
# From MPC110085
37P/Forbes,e,8.9561,314.5873,329.9970,3.456971,0.1533418,0.53415294,40.6132,01/24.0/2019,2000,g 10.5,4.8
# From MPC111773
38P/Stephan-Oterma,e,18.3532,77.9998,359.5815,11.29014,0.0259810,0.85929417,1.9232,01/24.0/2019,2000,g  3.5,12.0
# From MPC 75716
39P/Oterma,e,1.5599,299.2512,94.5637,7.416432,0.0487991,0.22290257,283.5668,01/24.0/2019,2000,g  5.0,6.0
# From MPC 10028
40P/Vaisala,e,11.4771,133.8137,47.4387,4.948052,0.0895473,0.63087180,137.0733,01/24.0/2019,2000,g  5.5,12.0
# From MPC105240
41P/Tuttle-Giacobini-Kresak,e,9.2246,141.0312,62.2241,3.084840,0.1819094,0.66089140,118.4817,01/24.0/2019,2000,g 10.0,16.0
# From MPC 94283
42P/Neujmin,e,3.9860,150.2330,147.0938,4.873350,0.0916142,0.58506249,126.9614,01/24.0/2019,2000,g 13.0,6.0
# From MPC102956
43P/Wolf-Harrington,e,18.6272,249.0344,193.3766,3.339257,0.1615211,0.62716241,136.1330,01/24.0/2019,2000,g  8.0,6.0
# From MPC 89313
44P/Reinmuth,e,5.8979,286.4745,58.1357,3.689856,0.1390561,0.42649165,195.0219,01/24.0/2019,2000,g  8.3,6.0
# From MPC103849
45P/Honda-Mrkos-Pajdusakova,e,4.3245,87.7141,327.9817,3.046872,0.1853202,0.81950666,139.9138,01/24.0/2019,2000,g 13.5,8.0
# From MPEC 2018-Y74
46P/Wirtanen,e,11.7452,82.1542,356.3600,3.092604,0.1812248,0.65874038,7.6216,01/24.0/2019,2000,g 14.0,6.0
# From NK 2718
47P/Ashbrook-Jackson,e,13.0287,356.9569,357.6275,4.126744,0.1175690,0.31732803,69.7156,01/24.0/2019,2000,g  1.0,11.2
# From MPC 94675
48P/Johnson,e,12.2069,110.1318,216.5702,3.498588,0.1506139,0.42703925,24.8184,01/24.0/2019,2000,g 10.0,6.0
# From MPC 94675
49P/Arend-Rigaux,e,19.0432,118.8235,332.8908,3.568676,0.1461987,0.59938178,28.1439,01/24.0/2019,2000,g 11.3,4.4
# From MPC 95735
50P/Arend,e,19.0984,355.1577,49.4101,4.090059,0.1191543,0.52862920,128.9269,01/24.0/2019,2000,g  9.5,6.0
# From NK 3014
51P-A/Harrington,e,5.4246,83.6951,269.1991,3.710804,0.1378802,0.54236253,173.8357,01/24.0/2019,2000,g 10.0,8.0
# From NK 3013
51P-D/Harrington,e,5.4254,83.6799,269.2379,3.709799,0.1379363,0.54229637,174.0565,01/24.0/2019,2000,g 16.0,8.0
# From MPC 88330
52P/Harrington-Abell,e,10.2308,336.8372,139.6312,3.860966,0.1299152,0.53946881,231.9407,01/24.0/2019,2000,g 13.5,6.0
# From MPC 10028
53P/Van Biesbroeck,e,6.6068,148.8855,134.2801,5.420775,0.0780930,0.55229986,77.9846,01/24.0/2019,2000,g  7.7,4.8
# From NK 2713
54P/de Vico-Swift-NEAT,e,6.0575,358.8331,1.7995,3.795380,0.1332973,0.42474561,86.4654,01/24.0/2019,2000,g 10.0,6.0
# From MPC 31070
55P/Tempel-Tuttle,e,162.3373,235.4059,172.5872,10.34084,0.0296395,0.90703958,226.6252,01/24.0/2019,2000,g 10.0,10.0
# From MPC101100
56P/Slaughter-Burnham,e,8.1510,345.9726,44.1245,5.076540,0.0861693,0.50620698,79.2721,01/24.0/2019,2000,g  8.5,6.0
# From MPC 98565
57P/du Toit-Neujmin-Delporte,e,2.8489,188.7992,115.1435,3.449010,0.1538730,0.50024057,206.4883,01/24.0/2019,2000,g 12.5,6.0
# From MPC 65938
58P/Jackson-Neujmin,e,13.1075,159.2311,200.4162,4.080215,0.1195858,0.66323899,301.7704,01/24.0/2019,2000,g 15.5,6.0
# From MPC111774
59P/Kearns-Kwee,e,9.3398,312.8263,127.7008,4.494028,0.1034547,0.47513593,13.3703,01/24.0/2019,2000,g  7.0,6.0
# From MPC 94675
60P/Tsuchinshan,e,3.6065,267.5837,216.5534,3.510113,0.1498727,0.53772123,6.5596,01/24.0/2019,2000,g 11.5,6.0
# From MPC 95213
